[
    [
        "BEIDOU-2 IGSO-1 (C06)",
        "1 36828U 10036A   24107.09773064 -.00000114  00000+0  00000+0 0  9992",
        "2 36828  54.2443 170.1322 0040088 199.8970 333.3797  1.00245293 50264"
    ],
    [
        "BEIDOU-2 G4 (C04)",
        "1 37210U 10057A   24115.86587424 -.00000096  00000+0  00000+0 0  9997",
        "2 37210   1.7178  67.9524 0003378 203.1686  54.0151  1.00273077 49432"
    ],
    [
        "BEIDOU-2 IGSO-2 (C07)",
        "1 37256U 10068A   24115.95978928 -.00000205  00000+0  00000+0 0  9994",
        "2 37256  48.9797 281.4646 0033033 209.0005 176.5003  1.00267338 48945"
    ],
    [
        "BEIDOU-2 IGSO-3 (C08)",
        "1 37384U 11013A   24116.07004382 -.00000195  00000+0  00000+0 0  9993",
        "2 37384  61.2796  47.6246 0025863 180.0273 119.9374  1.00272249 47813"
    ],
    [
        "BEIDOU-2 IGSO-4 (C09)",
        "1 37763U 11038A   24115.62509873  .00000005  00000+0  00000+0 0  9995",
        "2 37763  54.5507 172.6501 0123643 228.4049 133.2852  1.00270627 46788"
    ],
    [
        "BEIDOU-2 IGSO-5 (C10)",
        "1 37948U 11073A   24115.89451677 -.00000150  00000+0  00000+0 0  9998",
        "2 37948  49.1111 281.1485 0095282 219.1421 129.5210  1.00263657 45273"
    ],
    [
        "BEIDOU-2 G5 (C05)",
        "1 38091U 12008A   24116.13205517  .00000073  00000+0  00000+0 0  9998",
        "2 38091   1.9470  70.3689 0008568 267.8127 341.7905  1.00267363 44620"
    ],
    [
        "BEIDOU-2 M3 (C11)",
        "1 38250U 12018A   24115.23729444 -.00000062  00000+0  00000+0 0  9995",
        "2 38250  56.3731 331.1355 0020787 266.5793  93.2254  1.86231402 81346"
    ],
    [
        "BEIDOU-2 M4 (C12)",
        "1 38251U 12018B   24115.16772324 -.00000061  00000+0  00000+0 0  9992",
        "2 38251  56.2809 330.4135 0011754 272.0279  87.8795  1.86232155 81340"
    ],
    [
        "BEIDOU-2 M6 (C14)",
        "1 38775U 12050B   24115.41405986  .00000016  00000+0  00000+0 0  9993",
        "2 38775  55.8729  88.9591 0014797 331.8242  28.0697  1.86231175 79067"
    ],
    [
        "BEIDOU-2 G6 (C02)",
        "1 38953U 12059A   24115.89022784 -.00000160  00000+0  00000+0 0  9994",
        "2 38953   2.4238  80.8145 0010987 308.9658 228.1726  1.00273317 42052"
    ],
    [
        "BEIDOU-3S IGSO-1S (C31)",
        "1 40549U 15019A   24116.00188344 -.00000157  00000+0  00000+0 0  9992",
        "2 40549  50.6724 304.8141 0036420 191.3234 172.1128  1.00261104 33213"
    ],
    [
        "BEIDOU-3S M2S (C58)",
        "1 40748U 15037A   24115.36843706 -.00000061  00000+0  00000+0 0  9995",
        "2 40748  55.5142 328.8611 0007877 260.2433  99.7065  1.86233245 59526"
    ],
    [
        "BEIDOU-3S M1S (C57)",
        "1 40749U 15037B   24115.10181586 -.00000062  00000+0  00000+0 0  9990",
        "2 40749  55.5173 328.8571 0005289 359.7046   0.3348  1.86233099 59524"
    ],
    [
        "BEIDOU-3S IGSO-2S (C56)",
        "1 40938U 15053A   24115.82520760 -.00000149  00000+0  00000+0 0  9994",
        "2 40938  50.4447 268.0243 0050371 188.2044 150.7717  1.00274989 31493"
    ],
    [
        "BEIDOU-2 IGSO-6 (C13)",
        "1 41434U 16021A   24115.77419164 -.00000169  00000+0  00000+0 0  9993",
        "2 41434  59.1033  45.8896 0048824 224.9125 317.0468  1.00281443 29621"
    ],
    [
        "BEIDOU-2 G7 (C03)",
        "1 41586U 16037A   24115.90062296 -.00000338  00000+0  00000+0 0  9991",
        "2 41586   1.7789  68.9255 0009398 328.0467 251.1179  1.00266766 28934"
    ],
    [
        "BEIDOU-3 M1 (C19)",
        "1 43001U 17069A   24115.18015686  .00000016  00000+0  00000+0 0  9994",
        "2 43001  56.0232  89.0566 0012479 302.5850  57.2693  1.86231544 44002"
    ],
    [
        "BEIDOU-3 M2 (C20)",
        "1 43002U 17069B   24115.65422754  .00000016  00000+0  00000+0 0  9995",
        "2 43002  56.0228  89.0766 0010216 321.5007  38.3999  1.86231070 44005"
    ],
    [
        "BEIDOU-3 M7 (C27)",
        "1 43107U 18003A   24115.94084253 -.00000061  00000+0  00000+0 0  9991",
        "2 43107  54.9716 329.4560 0005173  64.4959 295.5955  1.86232536 42777"
    ],
    [
        "BEIDOU-3 M8 (C28)",
        "1 43108U 18003B   24114.26997862 -.00000066  00000+0  00000+0 0  9990",
        "2 43108  54.9655 329.4992 0002488 275.9363  84.0765  1.86231034 42742"
    ],
    [
        "BEIDOU-3 M4 (C22)",
        "1 43207U 18018A   24115.24822013  .00000016  00000+0  00000+0 0  9994",
        "2 43207  55.9819  89.1454 0007334 339.6898  20.2556  1.86231464 42145"
    ],
    [
        "BEIDOU-3 M3 (C21)",
        "1 43208U 18018B   24115.31478482  .00000016  00000+0  00000+0 0  9990",
        "2 43208  55.9815  89.1476 0010221 311.7079  48.1791  1.86231463 42146"
    ],
    [
        "BEIDOU-3 M9 (C29)",
        "1 43245U 18029A   24114.99961272 -.00000062  00000+0  00000+0 0  9992",
        "2 43245  54.8577 327.2014 0000859  36.1126 323.9302  1.86232826 41292"
    ],
    [
        "BEIDOU-3 M10 (C30)",
        "1 43246U 18029B   24115.46631287 -.00000061  00000+0  00000+0 0  9995",
        "2 43246  54.8545 327.2131 0004685  17.3082 342.7438  1.86232950 41276"
    ],
    [
        "BEIDOU-2 IGSO-7 (C16)",
        "1 43539U 18057A   24115.58938721 -.00000064  00000+0  00000+0 0  9990",
        "2 43539  55.1341 169.8366 0074028 232.8593 135.6069  1.00269607 21281"
    ],
    [
        "BEIDOU-3 M5 (C23)",
        "1 43581U 18062A   24115.68851029  .00000031  00000+0  00000+0 0  9992",
        "2 43581  54.1378 208.9570 0003243 276.9903  83.0145  1.86228825 39049"
    ],
    [
        "BEIDOU-3 M6 (C24)",
        "1 43582U 18062B   24115.55461044  .00000030  00000+0  00000+0 0  9992",
        "2 43582  54.1374 208.9509 0004573  23.3672 336.6944  1.86229592 39048"
    ],
    [
        "BEIDOU-3 M12 (C26)",
        "1 43602U 18067A   24113.87770059  .00000014  00000+0  00000+0 0  9994",
        "2 43602  54.2278 207.6840 0007011  24.9641 335.1014  1.86231786 38490"
    ],
    [
        "BEIDOU-3 M11 (C25)",
        "1 43603U 18067B   24115.62247087  .00000032  00000+0  00000+0 0  9990",
        "2 43603  54.2248 207.5900 0003745  13.9567 346.0979  1.86231643 38559"
    ],
    [
        "BEIDOU-3 M13 (C32)",
        "1 43622U 18072A   24115.58293496  .00000015  00000+0  00000+0 0  9998",
        "2 43622  55.9531  88.6668 0008972 300.7596  59.1253  1.86231460 38068"
    ],
    [
        "BEIDOU-3 M14 (C33)",
        "1 43623U 18072B   24115.44839022  .00000015  00000+0  00000+0 0  9995",
        "2 43623  55.9548  88.6643 0006736 320.2557  39.6685  1.86231453 38053"
    ],
    [
        "BEIDOU-3 M16 (C35)",
        "1 43647U 18078A   24115.07453305 -.00000062  00000+0  00000+0 0  9995",
        "2 43647  54.7539 327.3017 0008036  20.7158 339.3538  1.86232384 37553"
    ],
    [
        "BEIDOU-3 M15 (C34)",
        "1 43648U 18078B   24115.20371111 -.00000062  00000+0  00000+0 0  9995",
        "2 43648  54.7496 327.3003 0005178  31.4200 328.6477  1.86232280 37572"
    ],
    [
        "BEIDOU-3 G1 (C59)",
        "1 43683U 18085A   24115.87549324 -.00000261  00000+0  00000+0 0  9999",
        "2 43683   2.0602 111.6872 0004172 343.1156 213.8286  1.00270087 20208"
    ],
    [
        "BEIDOU-3 M17 (C36)",
        "1 43706U 18093A   24115.35322291  .00000028  00000+0  00000+0 0  9999",
        "2 43706  54.2209 208.9028 0008421 280.9377  79.0072  1.86228462 36940"
    ],
    [
        "BEIDOU-3 M18 (C37)",
        "1 43707U 18093B   24115.75594375  .00000031  00000+0  00000+0 0  9992",
        "2 43707  54.2214 208.8808 0006670 312.1551  47.8306  1.86229884 36940"
    ],
    [
        "BEIDOU-3 IGSO-1 (C38)",
        "1 44204U 19023A   24115.71416737 -.00000224  00000+0  00000+0 0  9995",
        "2 44204  57.5673  45.7846 0019364 214.4462 329.0133  1.00265616 18488"
    ],
    [
        "BEIDOU-2 G8 (C01)",
        "1 44231U 19027A   24115.84834969 -.00000232  00000+0  00000+0 0  9993",
        "2 44231   1.8167  73.5200 0002352 171.8171  57.9808  1.00272156 18228"
    ],
    [
        "BEIDOU-3 IGSO-2 (C39)",
        "1 44337U 19035A   24115.59506391 -.00000063  00000+0  00000+0 0  9998",
        "2 44337  55.1686 165.7383 0032916 208.0570 171.8435  1.00258081 17811"
    ],
    [
        "BEIDOU-3 M24 (C46)",
        "1 44542U 19061A   24115.28893843  .00000028  00000+0  00000+0 0  9992",
        "2 44542  54.4485 209.1803 0007248 355.2231   4.8084  1.86231227 31196"
    ],
    [
        "BEIDOU-3 M23 (C45)",
        "1 44543U 19061B   24115.42938687  .00000029  00000+0  00000+0 0  9996",
        "2 44543  54.4468 209.1448 0004348 339.8425  26.5474  1.86231716 31203"
    ],
    [
        "BEIDOU-3 IGSO-3 (C40)",
        "1 44709U 19073A   24114.88209060 -.00000183  00000+0  00000+0 0  9990",
        "2 44709  56.1431 289.2951 0037144 179.6383 180.2906  1.00266078 16595"
    ],
    [
        "BEIDOU-3 M22 (C44)",
        "1 44793U 19078A   24115.13476491 -.00000062  00000+0  00000+0 0  9997",
        "2 44793  54.6017 327.2383 0007065  28.1094 331.9654  1.86232236 30043"
    ],
    [
        "BEIDOU-3 M21 (C43)",
        "1 44794U 19078B   24115.26469361 -.00000062  00000+0  00000+0 0  9990",
        "2 44794  54.5753 327.2111 0004946  24.9361 335.1241  1.86232712 30053"
    ],
    [
        "BEIDOU-3 M19 (C41)",
        "1 44864U 19090A   24115.79017913  .00000016  00000+0  00000+0 0  9990",
        "2 44864  55.8873  88.8343 0019708 283.1032 262.3207  1.86231805 29649"
    ],
    [
        "BEIDOU-3 M20 (C42)",
        "1 44865U 19090B   24114.24689691  .00000016  00000+0  00000+0 0  9998",
        "2 44865  55.8880  88.9189 0017660 295.0954  25.3802  1.86231781 29592"
    ],
    [
        "BEIDOU-3 G2 (C60)",
        "1 45344U 20017A   24116.13631928 -.00000126  00000+0  00000+0 0  9995",
        "2 45344   2.2545  27.4571 0001136   0.4678 314.8071  1.00270608 15422"
    ],
    [
        "BEIDOU-3 G3 (C61)",
        "1 45807U 20040A   24115.94797693 -.00000339  00000+0  00000+0 0  9991",
        "2 45807   0.6953  34.5765 0005469 304.6168 326.1241  1.00272260 14218"
    ],
    [
        "BEIDOU-3 G4",
        "1 56564U 23066A   24116.20188205 -.00000097  00000+0  00000+0 0  9998",
        "2 56564   2.2568 288.2200 0004354 188.1975 330.0394  1.00272644  3559"
    ],
    [
        "BEIDOU-3 M25",
        "1 58654U 23207A   24115.88425418  .00000014  00000+0  00000+0 0  9998",
        "2 58654  55.0697  88.8838 0004860 293.6852  66.2371  1.86232294  2259"
    ],
    [
        "BEIDOU-3 M26",
        "1 58655U 23207B   24115.14616031  .00000014  00000+0  00000+0 0  9991",
        "2 58655  55.0711  88.8944 0005421 278.3679  81.5460  1.86231901  2226"
    ]
]